{
  "type": "FeatureCollection",
  "features": [
    {
      "type": "Feature",
      "properties": {
        "norad_id": 66591,
        "name": "STARLINK-36058",
        "group": "last-30-days",
        "lat": 41.01197092421367,
        "lon": -57.435467412396285,
        "alt_km": 409.7205996365119,
        "timestamp": "2025-12-12T22:42:11.306386+00:00",
        "meta_object_name": "STARLINK-36058",
        "meta_object_id": "2025-270D",
        "meta_epoch": "2025-12-12T06:00:00.999648",
        "meta_mean_motion": 15.50649289,
        "meta_eccentricity": 0.0002277,
        "meta_inclination": 42.9997,
        "meta_ra_of_asc_node": 195.5867,
        "meta_arg_of_pericenter": 266.7121,
        "meta_mean_anomaly": 269.2669,
        "meta_ephemeris_type": 0,
        "meta_classification_type": "U",
        "meta_norad_cat_id": 66591,
        "meta_element_set_no": 999,
        "meta_rev_at_epoch": 432,
        "meta_bstar": 0.00031485927,
        "meta_mean_motion_dot": 0.00018219,
        "meta_mean_motion_ddot": 0,
        "tle_line1": "1 66591U 25270D   25346.25001157  .00018219  00000+0  31486-3 0  9999",
        "tle_line2": "2 66591  42.9997 195.5867 0002277 266.7121 269.2669 15.50649289  4321"
      },
      "geometry": {
        "type": "Point",
        "coordinates": [
          -57.435467412396285,
          41.01197092421367
        ]
      }
    },
    {
      "type": "Feature",
      "properties": {
        "norad_id": 66592,
        "name": "STARLINK-36066",
        "group": "last-30-days",
        "lat": 41.09974820395578,
        "lon": -57.89893501066664,
        "alt_km": 415.7358914127408,
        "timestamp": "2025-12-12T22:42:11.306396+00:00",
        "meta_object_name": "STARLINK-36066",
        "meta_object_id": "2025-270E",
        "meta_epoch": "2025-12-12T06:00:00.999648",
        "meta_mean_motion": 15.51034998,
        "meta_eccentricity": 0.00014052,
        "meta_inclination": 43,
        "meta_ra_of_asc_node": 195.5818,
        "meta_arg_of_pericenter": 255.0543,
        "meta_mean_anomaly": 282.8238,
        "meta_ephemeris_type": 0,
        "meta_classification_type": "U",
        "meta_norad_cat_id": 66592,
        "meta_element_set_no": 999,
        "meta_rev_at_epoch": 422,
        "meta_bstar": -0.031583993,
        "meta_mean_motion_dot": -0.01684448,
        "meta_mean_motion_ddot": 0,
        "tle_line1": "1 66592U 25270E   25346.25001157 -.01684448  00000+0 -31584-1 0  9993",
        "tle_line2": "2 66592  43.0000 195.5818 0001405 255.0543 282.8238 15.51034998  4224"
      },
      "geometry": {
        "type": "Point",
        "coordinates": [
          -57.89893501066664,
          41.09974820395578
        ]
      }
    },
    {
      "type": "Feature",
      "properties": {
        "norad_id": 66593,
        "name": "STARLINK-36031",
        "group": "last-30-days",
        "lat": 40.062544483223796,
        "lon": -52.97856896657308,
        "alt_km": 411.0330275202459,
        "timestamp": "2025-12-12T22:42:11.306406+00:00",
        "meta_object_name": "STARLINK-36031",
        "meta_object_id": "2025-270F",
        "meta_epoch": "2025-12-12T06:00:00.999648",
        "meta_mean_motion": 15.50801232,
        "meta_eccentricity": 0.00016761,
        "meta_inclination": 42.9999,
        "meta_ra_of_asc_node": 195.5772,
        "meta_arg_of_pericenter": 276.1104,
        "meta_mean_anomaly": 263.8093,
        "meta_ephemeris_type": 0,
        "meta_classification_type": "U",
        "meta_norad_cat_id": 66593,
        "meta_element_set_no": 999,
        "meta_rev_at_epoch": 432,
        "meta_bstar": -0.0075553646,
        "meta_mean_motion_dot": -0.0042379,
        "meta_mean_motion_ddot": 0,
        "tle_line1": "1 66593U 25270F   25346.25001157 -.00423790  00000+0 -75554-2 0  9990",
        "tle_line2": "2 66593  42.9999 195.5772 0001676 276.1104 263.8093 15.50801232  4327"
      },
      "geometry": {
        "type": "Point",
        "coordinates": [
          -52.97856896657308,
          40.062544483223796
        ]
      }
    },
    {
      "type": "Feature",
      "properties": {
        "norad_id": 66594,
        "name": "STARLINK-36032",
        "group": "last-30-days",
        "lat": 39.422934163423584,
        "lon": -50.40885329792147,
        "alt_km": 410.0083398488505,
        "timestamp": "2025-12-12T22:42:11.306416+00:00",
        "meta_object_name": "STARLINK-36032",
        "meta_object_id": "2025-270G",
        "meta_epoch": "2025-12-12T06:00:00.999648",
        "meta_mean_motion": 15.50561724,
        "meta_eccentricity": 0.00019387,
        "meta_inclination": 42.9999,
        "meta_ra_of_asc_node": 195.5726,
        "meta_arg_of_pericenter": 275.1193,
        "meta_mean_anomaly": 266.6716,
        "meta_ephemeris_type": 0,
        "meta_classification_type": "U",
        "meta_norad_cat_id": 66594,
        "meta_element_set_no": 999,
        "meta_rev_at_epoch": 405,
        "meta_bstar": 0.00034109228,
        "meta_mean_motion_dot": 0.00019707,
        "meta_mean_motion_ddot": 0,
        "tle_line1": "1 66594U 25270G   25346.25001157  .00019707  00000+0  34109-3 0  9990",
        "tle_line2": "2 66594  42.9999 195.5726 0001938 275.1193 266.6716 15.50561724  4057"
      },
      "geometry": {
        "type": "Point",
        "coordinates": [
          -50.40885329792147,
          39.422934163423584
        ]
      }
    },
    {
      "type": "Feature",
      "properties": {
        "norad_id": 66595,
        "name": "STARLINK-35711",
        "group": "last-30-days",
        "lat": 38.81620487944396,
        "lon": -48.19703866545977,
        "alt_km": 409.51362636106387,
        "timestamp": "2025-12-12T22:42:11.306428+00:00",
        "meta_object_name": "STARLINK-35711",
        "meta_object_id": "2025-270H",
        "meta_epoch": "2025-12-12T06:00:00.999648",
        "meta_mean_motion": 15.50559008,
        "meta_eccentricity": 0.0001228,
        "meta_inclination": 42.9998,
        "meta_ra_of_asc_node": 195.5673,
        "meta_arg_of_pericenter": 271.1212,
        "meta_mean_anomaly": 272.4553,
        "meta_ephemeris_type": 0,
        "meta_classification_type": "U",
        "meta_norad_cat_id": 66595,
        "meta_element_set_no": 999,
        "meta_rev_at_epoch": 443,
        "meta_bstar": 0.00075586066,
        "meta_mean_motion_dot": 0.0004422,
        "meta_mean_motion_ddot": 0,
        "tle_line1": "1 66595U 25270H   25346.25001157  .00044220  00000+0  75586-3 0  9993",
        "tle_line2": "2 66595  42.9998 195.5673 0001228 271.1212 272.4553 15.50559008  4436"
      },
      "geometry": {
        "type": "Point",
        "coordinates": [
          -48.19703866545977,
          38.81620487944396
        ]
      }
    },
    {
      "type": "Feature",
      "properties": {
        "norad_id": 66596,
        "name": "STARLINK-35811",
        "group": "last-30-days",
        "lat": 42.462839956925116,
        "lon": -67.60446365468857,
        "alt_km": 428.7641959547873,
        "timestamp": "2025-12-12T22:42:11.306438+00:00",
        "meta_object_name": "STARLINK-35811",
        "meta_object_id": "2025-270J",
        "meta_epoch": "2025-12-12T06:00:00.999648",
        "meta_mean_motion": 15.47181646,
        "meta_eccentricity": 0.00013465,
        "meta_inclination": 42.9994,
        "meta_ra_of_asc_node": 195.5749,
        "meta_arg_of_pericenter": 261.7146,
        "meta_mean_anomaly": 279.2464,
        "meta_ephemeris_type": 0,
        "meta_classification_type": "U",
        "meta_norad_cat_id": 66596,
        "meta_element_set_no": 999,
        "meta_rev_at_epoch": 443,
        "meta_bstar": -0.045199005,
        "meta_mean_motion_dot": -0.02088437,
        "meta_mean_motion_ddot": 0,
        "tle_line1": "1 66596U 25270J   25346.25001157 -.02088437  00000+0 -45199-1 0  9991",
        "tle_line2": "2 66596  42.9994 195.5749 0001346 261.7146 279.2464 15.47181646  4430"
      },
      "geometry": {
        "type": "Point",
        "coordinates": [
          -67.60446365468857,
          42.462839956925116
        ]
      }
    },
    {
      "type": "Feature",
      "properties": {
        "norad_id": 66597,
        "name": "STARLINK-35820",
        "group": "last-30-days",
        "lat": 37.35595431666908,
        "lon": -43.51526783271183,
        "alt_km": 410.1874416332057,
        "timestamp": "2025-12-12T22:42:11.306448+00:00",
        "meta_object_name": "STARLINK-35820",
        "meta_object_id": "2025-270K",
        "meta_epoch": "2025-12-12T06:00:00.999648",
        "meta_mean_motion": 15.50574327,
        "meta_eccentricity": 0.00018838,
        "meta_inclination": 43.0001,
        "meta_ra_of_asc_node": 195.5579,
        "meta_arg_of_pericenter": 275.01,
        "meta_mean_anomaly": 272.5216,
        "meta_ephemeris_type": 0,
        "meta_classification_type": "U",
        "meta_norad_cat_id": 66597,
        "meta_element_set_no": 999,
        "meta_rev_at_epoch": 443,
        "meta_bstar": 0.00049855638,
        "meta_mean_motion_dot": 0.0002901,
        "meta_mean_motion_ddot": 0,
        "tle_line1": "1 66597U 25270K   25346.25001157  .00029010  00000+0  49856-3 0  9996",
        "tle_line2": "2 66597  43.0001 195.5579 0001883 275.0100 272.5216 15.50574327  4434"
      },
      "geometry": {
        "type": "Point",
        "coordinates": [
          -43.51526783271183,
          37.35595431666908
        ]
      }
    }
  ]
}